#aV2013 10 21  0  0  0.00000000     288 DD+AD WGS84 FIT  NGA
## 1763  86400.00000000   300.00000000 56586 0.0000000000000
+   31     1  2  3  4  5  6  7  8  9 10 11 12 13 14 15 16 17
+         18 19 20 21 22 23 24 25 26 27 28 29 31 32  0  0  0
+          0  0  0  0  0  0  0  0  0  0  0  0  0  0  0  0  0
+          0  0  0  0  0  0  0  0  0  0  0  0  0  0  0  0  0
+          0  0  0  0  0  0  0  0  0  0  0  0  0  0  0  0  0
++         2  2  2  2  2  2  2  2  2  2  2  2  2  2  2  2  2
++         2  2  2  2  2  2  2  2  2  2  2  2  2  2  2  0  0
++         0  0  0  0  0  0  0  0  0  0  0  0  0  0  0  0  0
++         0  0  0  0  0  0  0  0  0  0  0  0  0  0  0  0  0
++         0  0  0  0  0  0  0  0  0  0  0  0  0  0  0  0  0
%c cc cc ccc ccc cccc cccc cccc cccc ccccc ccccc ccccc ccccc
%c cc cc ccc ccc cccc cccc cccc cccc ccccc ccccc ccccc ccccc
%f  0.0000000  0.000000000  0.00000000000  0.000000000000000
%f  0.0000000  0.000000000  0.00000000000  0.000000000000000
%i    0    0    0    0      0      0      0      0         0
%i    0    0    0    0      0      0      0      0         0
/*      NGA, ST. LOUIS,MO.                                  
/*   EPHEMERIS COMPUTED FROM  1 DAYS OF DATA
/*   EPOCHA SMOOTHER  
/* CCCCCCCCCCCCCCCCCCCCCCCCCCCCCCCCCCCCCCCCCCCCCCCCCCCCCCCCC
*  2013 10 21  0 40  0.00000000                                                 
P  1 -13715.343405  22170.409836   4737.748932     86.835446                    
V  1    -95.792053  -6716.899472  31049.091704      0.036157                    
P  2  16787.907458  -1767.912116 -20159.092068    456.855278                    
V  2  -9006.326815  24775.554770 -10065.786138      0.017764                    
P  3 -19595.192969  -1791.420151  17385.968210    275.312379                    
V  3 -14627.197312 -18073.064835 -17624.318686      0.050504                    
P  4  11412.216733  12146.922899 -20936.195294      2.296360                    
V  4 -11431.713901  23410.756668   7719.252703      0.005157                    
P  5  26554.063612  -1749.270967  -1390.233745   -398.775220                    
V  5  -1395.619634   3227.889174 -31314.929102      0.004604                    
P  6 -20813.704098  -9044.693360  14161.918645    111.890970                    
V  6  -9553.359360 -15172.762991 -23442.605150      0.180642                    
P  7  -4114.895606  24161.517230   9876.663355    271.759560                    
V  7  -7531.388890  10294.695837 -28817.605871      0.042282                    
P  8   3322.545316  18210.865559  18926.581706      9.270786                    
V  8 -13283.070311  19891.978975 -17518.696118      0.003086                    
P  9   4622.753881  18597.626111  17802.339403    277.040950                    
V  9 -11045.424039  20996.076288 -18649.125776      0.027923                    
P 10  18726.227389  10302.823993 -16341.994094    -98.701399                    
V 10 -19827.572747   3554.210003 -20459.599530     -0.013110                    
P 11 -13024.239522  18510.027657  13238.346354   -430.528789                    
V 11  -1991.995836 -18259.343425  23007.100604     -0.034805                    
P 12  19115.128314 -11000.634172 -14695.455834    163.278993                    
V 12  18676.958690    412.547967  24260.822302      0.022465                    
P 13   2352.173850  22618.515993 -13732.510761     68.051490                    
V 13 -10138.808873 -14059.808516 -25268.985971     -0.038063                    
P 14 -15387.687845 -21553.885049  -2669.726414    212.834399                    
V 14     78.789178  -4319.321120  31675.426115     -0.009851                    
P 15  12257.881537  -9761.960862  21410.064522   -142.993947                    
V 15  16811.069263  21572.999763    479.722087     -0.019052                    
P 16 -26716.793364    430.632879  -1241.172870   -243.981490                    
V 16   1438.175785  -1776.079585 -32039.237216      0.009732                    
P 17  15471.213269  21689.632270  -1410.712968    -32.993476                    
V 17   -913.628631   3059.778001  31652.465954     -0.037633                    
P 18  -2387.569749 -15977.211357  21512.166918    280.469153                    
V 18  26330.333098  -2676.690553    609.663578      0.020851                    
P 19 -14218.043676   5508.406918  21653.617197   -412.841198                    
V 19 -14004.851834 -23946.560070  -2670.055198     -0.027083                    
P 20 -14574.209637  14897.316449 -16603.456521    130.841044                    
V 20 -21000.361211    880.947906  19513.293844      0.027889                    
P 21    309.866509 -23472.492926  12517.222846   -324.555551                    
V 21   9187.423068 -12586.509109 -25518.850225     -0.018521                    
P 22 -15314.229198 -12223.618005  18193.345871    190.810232                    
V 22  22463.737217  -4225.703791  16100.133024      0.018377                    
P 23  -5849.414359  16278.297805 -19949.806052     37.427478                    
V 23 -15891.012844 -20216.130544 -12179.115284     -0.033764                    
P 24  15398.681379 -19765.336302   8722.102668    -15.891428                    
V 24  -1992.719154  11253.266560  29059.574305     -0.006941                    
P 25   5799.730104 -15038.863368 -21148.862979    159.368495                    
V 25  26624.483320  -2110.847053   8923.595205      0.036001                    
P 26  17756.991696   5836.866342  18354.322761    248.889099                    
V 26  11296.344029  21771.074407 -16951.861769      0.191445                    
P 27 -19260.108838  -6014.767027  17268.315570    -49.986826                    
V 27 -11493.213432 -18770.875000 -19328.897568     -0.040042                    
P 28  11504.299423  13213.070017  20607.841132    302.236891                    
V 28 -24691.287633   1617.704828  12963.494400      0.030568                    
P 29   -139.997052 -20941.310688 -16318.122558    480.525628                    
V 29  12735.170247  16493.383449 -21188.587704      0.031847                    
P 31 -11327.748163  -9964.911406 -21657.869801    328.263180                    
V 31  12589.663904 -24892.694511   5108.101328      0.007250                    
P 32 -23125.023492   7464.493552  -9950.694593   -538.423907                    
V 32 -13026.799099  -3086.429948  28215.947164      0.037926                    
EOF
